{
"type": "FeatureCollection",
"name": "kitsuki_ponds_final",
"crs": { "type": "name", "properties": { "name": "urn:ogc:def:crs:OGC:1.3:CRS84" } },
"features": [
{ "type": "Feature", "properties": { "natural": "water", "source": null, "water": "reservoir", "landuse": null, "layer": null, "type": "multipolygon", "area_m2": 22535.097746899719, "name": "Unnamed", "simple_id": 0 }, "geometry": { "type": "Polygon", "coordinates": [ [ [ 131.56421610000001, 33.4158654 ], [ 131.564008800000011, 33.4163996 ], [ 131.56386710000001, 33.4166825 ], [ 131.563522, 33.4172894 ], [ 131.5633187, 33.4174848 ], [ 131.56281340000001, 33.4179426 ], [ 131.5627579, 33.4180352 ], [ 131.5627518, 33.4182512 ], [ 131.5628072, 33.4182821 ], [ 131.5630352, 33.4180455 ], [ 131.5633372, 33.4178346 ], [ 131.56372540000001, 33.4177111 ], [ 131.564021200000013, 33.4176546 ], [ 131.5641731, 33.4175765 ], [ 131.5643808, 33.4167955 ], [ 131.56485, 33.4161626 ], [ 131.564907299999987, 33.4159583 ], [ 131.56482840000001, 33.4158647 ], [ 131.564360099999988, 33.4157566 ], [ 131.56421610000001, 33.4158654 ] ] ] } },
{ "type": "Feature", "properties": { "natural": "water", "source": null, "water": "reservoir", "landuse": null, "layer": null, "type": "multipolygon", "area_m2": 20592.515829573367, "name": "Unnamed", "simple_id": 1 }, "geometry": { "type": "Polygon", "coordinates": [ [ [ 131.5632008, 33.4243426 ], [ 131.5632176, 33.4244196 ], [ 131.5635346, 33.4246112 ], [ 131.5636182, 33.4245062 ], [ 131.5642843, 33.4241088 ], [ 131.5646205, 33.4239684 ], [ 131.564882, 33.4239762 ], [ 131.5649381, 33.4237346 ], [ 131.5651249, 33.4234695 ], [ 131.5651062, 33.4233682 ], [ 131.5649101, 33.423298 ], [ 131.5649101, 33.4229862 ], [ 131.5647793, 33.4227134 ], [ 131.56446170000001, 33.4225575 ], [ 131.5642843, 33.4227602 ], [ 131.5642096, 33.4230174 ], [ 131.564293600000013, 33.4233682 ], [ 131.564200199999988, 33.4236254 ], [ 131.5640414, 33.4238359 ], [ 131.563854600000013, 33.4239295 ], [ 131.563397, 33.4240932 ], [ 131.5632008, 33.4243426 ] ] ] } },
{ "type": "Feature", "properties": { "natural": "water", "source": "Bing", "water": "reservoir", "landuse": null, "layer": null, "type": null, "area_m2": 48375.059728968707, "name": "Unnamed", "simple_id": 2 }, "geometry": { "type": "Polygon", "coordinates": [ [ [ 131.600164, 33.4243816 ], [ 131.5995441, 33.422995 ], [ 131.5994583, 33.422826 ], [ 131.5992668, 33.4226839 ], [ 131.5992324, 33.4227714 ], [ 131.5990721, 33.4227801 ], [ 131.599119, 33.4229183 ], [ 131.5991879, 33.4230947 ], [ 131.5991292, 33.4233761 ], [ 131.5988285, 33.4235455 ], [ 131.598438, 33.4236239 ], [ 131.5982521, 33.4237906 ], [ 131.597961199999986, 33.4240374 ], [ 131.5976196, 33.4241724 ], [ 131.597275200000013, 33.424325 ], [ 131.5970084, 33.4243925 ], [ 131.5972601, 33.4245976 ], [ 131.59785930000001, 33.4245325 ], [ 131.598171, 33.4246076 ], [ 131.5983987, 33.4246976 ], [ 131.5985665, 33.4247126 ], [ 131.598842100000013, 33.4248126 ], [ 131.5988362, 33.4249077 ], [ 131.5988122, 33.4250877 ], [ 131.5988781, 33.4252528 ], [ 131.599015900000012, 33.4253428 ], [ 131.599130300000013, 33.4252473 ], [ 131.5993947, 33.4250279 ], [ 131.599687100000011, 33.4248626 ], [ 131.599836900000014, 33.4247826 ], [ 131.599947899999989, 33.4247312 ], [ 131.5999684, 33.4247102 ], [ 131.599963699999989, 33.4246761 ], [ 131.5999338, 33.4246499 ], [ 131.599882, 33.4246447 ], [ 131.59983170000001, 33.4246447 ], [ 131.5997956, 33.4246355 ], [ 131.599775099999988, 33.4246171 ], [ 131.599753099999987, 33.424566 ], [ 131.5997563, 33.4245214 ], [ 131.5997783, 33.4244965 ], [ 131.599805, 33.424486 ], [ 131.59983170000001, 33.4244808 ], [ 131.599853700000011, 33.4244795 ], [ 131.599875700000013, 33.4244808 ], [ 131.5999118, 33.4244965 ], [ 131.599943200000013, 33.4245188 ], [ 131.5999668, 33.4245385 ], [ 131.599987199999987, 33.4245607 ], [ 131.6000249, 33.4245883 ], [ 131.6000139, 33.4246302 ], [ 131.5999966, 33.424646 ], [ 131.6000186, 33.4246827 ], [ 131.600087800000011, 33.4246394 ], [ 131.6001836, 33.4245444 ], [ 131.6001785, 33.4244546 ], [ 131.600164, 33.4243816 ] ] ] } },
{ "type": "Feature", "properties": { "natural": null, "source": "Bing", "water": null, "landuse": "reservoir", "layer": null, "type": null, "area_m2": 16472.175681678116, "name": "Unnamed", "simple_id": 3 }, "geometry": { "type": "Polygon", "coordinates": [ [ [ 131.5017823, 33.4846595 ], [ 131.502447, 33.4839944 ], [ 131.5026669, 33.4840123 ], [ 131.502870800000011, 33.4841286 ], [ 131.5029786, 33.4842165 ], [ 131.5031664, 33.4842568 ], [ 131.5033321, 33.4842136 ], [ 131.503456, 33.4842344 ], [ 131.5034185, 33.4843507 ], [ 131.503279, 33.4844894 ], [ 131.5031127, 33.4846058 ], [ 131.5029035, 33.4846505 ], [ 131.5028338, 33.4847534 ], [ 131.5027957, 33.4848803 ], [ 131.5027796, 33.48501 ], [ 131.502785499999987, 33.485174 ], [ 131.502736700000014, 33.4852919 ], [ 131.5025704, 33.48535 ], [ 131.502420699999988, 33.4852769 ], [ 131.502420699999988, 33.4851874 ], [ 131.502329, 33.4851263 ], [ 131.5021954, 33.4850934 ], [ 131.5021418, 33.4850219 ], [ 131.502072, 33.48491 ], [ 131.5019379, 33.484825 ], [ 131.501836, 33.4847579 ], [ 131.5017823, 33.4846595 ] ] ] } },
{ "type": "Feature", "properties": { "natural": "water", "source": null, "water": null, "landuse": null, "layer": null, "type": null, "area_m2": 9221.8994129919047, "name": "Unnamed", "simple_id": 12 }, "geometry": { "type": "Polygon", "coordinates": [ [ [ 131.582336, 33.527867 ], [ 131.583081600000014, 33.5280124 ], [ 131.582963400000011, 33.5281321 ], [ 131.5829381, 33.5282751 ], [ 131.5829775, 33.528573 ], [ 131.5829381, 33.5288545 ], [ 131.5828368, 33.5289647 ], [ 131.582637, 33.5290539 ], [ 131.5825188, 33.5290703 ], [ 131.582389400000011, 33.5290234 ], [ 131.5823866, 33.5288334 ], [ 131.5824316, 33.5287583 ], [ 131.5824457, 33.5284909 ], [ 131.5823753, 33.528247 ], [ 131.5823191, 33.5280312 ], [ 131.5822966, 33.5279116 ], [ 131.582336, 33.527867 ] ] ] } },
{ "type": "Feature", "properties": { "natural": "water", "source": null, "water": null, "landuse": null, "layer": null, "type": null, "area_m2": 26433.404501246845, "name": "Unnamed", "simple_id": 13 }, "geometry": { "type": "Polygon", "coordinates": [ [ [ 131.5816514, 33.5332406 ], [ 131.581770799999987, 33.5330715 ], [ 131.5818304, 33.5330582 ], [ 131.58192, 33.5328336 ], [ 131.582319899999987, 33.5328436 ], [ 131.5825487, 33.5328535 ], [ 131.5827059, 33.5329381 ], [ 131.5827098, 33.533084 ], [ 131.58278150000001, 33.533157 ], [ 131.582755600000013, 33.5335186 ], [ 131.582691899999986, 33.5335932 ], [ 131.5825925, 33.5336545 ], [ 131.5826123, 33.533963 ], [ 131.5825964, 33.5345368 ], [ 131.582578500000011, 33.5349199 ], [ 131.582244300000013, 33.5352019 ], [ 131.5821368, 33.5352284 ], [ 131.5818782, 33.5351985 ], [ 131.581822499999987, 33.5351173 ], [ 131.5818523, 33.5349796 ], [ 131.582041299999986, 33.5349017 ], [ 131.5821906, 33.5349067 ], [ 131.5822224, 33.5348154 ], [ 131.5820473, 33.5346712 ], [ 131.5819438, 33.5345037 ], [ 131.581965700000012, 33.5343975 ], [ 131.581876200000011, 33.5339497 ], [ 131.5817011, 33.5335666 ], [ 131.5816434, 33.5333511 ], [ 131.5816514, 33.5332406 ] ] ] } },
{ "type": "Feature", "properties": { "natural": "water", "source": null, "water": null, "landuse": null, "layer": null, "type": null, "area_m2": 8870.2971133772662, "name": "Unnamed", "simple_id": 14 }, "geometry": { "type": "Polygon", "coordinates": [ [ [ 131.575499900000011, 33.5296054 ], [ 131.5759774, 33.529151 ], [ 131.576020199999988, 33.5292557 ], [ 131.5760948, 33.5292969 ], [ 131.5761843, 33.5292803 ], [ 131.576248, 33.529345 ], [ 131.5762341, 33.5294528 ], [ 131.5762958, 33.5295142 ], [ 131.5763992, 33.5295474 ], [ 131.5764131, 33.5296568 ], [ 131.576466900000014, 33.5297679 ], [ 131.5765683, 33.5298393 ], [ 131.5766698, 33.5301295 ], [ 131.5766937, 33.5302074 ], [ 131.5763336, 33.5301411 ], [ 131.576252, 33.5300847 ], [ 131.576110699999987, 33.5301096 ], [ 131.5760152, 33.5300748 ], [ 131.5760013, 33.5300035 ], [ 131.57587, 33.5298641 ], [ 131.57556360000001, 33.52968 ], [ 131.575499900000011, 33.5296054 ] ] ] } },
{ "type": "Feature", "properties": { "natural": "water", "source": null, "water": null, "landuse": null, "layer": null, "type": null, "area_m2": 16106.205199403226, "name": "Unnamed", "simple_id": 15 }, "geometry": { "type": "Polygon", "coordinates": [ [ [ 131.5945302, 33.5017621 ], [ 131.593619100000012, 33.5016323 ], [ 131.593535300000013, 33.5019089 ], [ 131.5936648, 33.501991 ], [ 131.5935775, 33.5025472 ], [ 131.5936648, 33.5026692 ], [ 131.593583200000012, 33.5030235 ], [ 131.593417100000011, 33.5034224 ], [ 131.5933215, 33.5035796 ], [ 131.59351, 33.5036876 ], [ 131.5938055, 33.5034201 ], [ 131.5940841, 33.5027466 ], [ 131.594092499999988, 33.5024885 ], [ 131.5943289, 33.5022867 ], [ 131.5944555, 33.5020286 ], [ 131.594531499999988, 33.5018479 ], [ 131.5945302, 33.5017621 ] ] ] } },
{ "type": "Feature", "properties": { "natural": "water", "source": null, "water": null, "landuse": null, "layer": null, "type": null, "area_m2": 6533.2693788773431, "name": "Unnamed", "simple_id": 16 }, "geometry": { "type": "Polygon", "coordinates": [ [ [ 131.6098876, 33.4139261 ], [ 131.6103463, 33.413588 ], [ 131.6107164, 33.413138 ], [ 131.6112153, 33.4136328 ], [ 131.610780799999986, 33.4137738 ], [ 131.6106547, 33.4138679 ], [ 131.610260399999987, 33.4139619 ], [ 131.6101424, 33.4139417 ], [ 131.6100539, 33.413888 ], [ 131.6098876, 33.4139261 ] ] ] } },
{ "type": "Feature", "properties": { "natural": "water", "source": null, "water": null, "landuse": null, "layer": null, "type": null, "area_m2": 12955.141576202792, "name": "Unnamed", "simple_id": 17 }, "geometry": { "type": "Polygon", "coordinates": [ [ [ 131.6071356, 33.4132992 ], [ 131.607425299999989, 33.4131447 ], [ 131.6075755, 33.4128245 ], [ 131.6076828, 33.4124641 ], [ 131.6083668, 33.4125133 ], [ 131.60823, 33.4129275 ], [ 131.607857200000012, 33.4135499 ], [ 131.6078545, 33.4136775 ], [ 131.607803499999989, 33.413682 ], [ 131.6075863, 33.4139216 ], [ 131.60749770000001, 33.413897 ], [ 131.607377, 33.4137559 ], [ 131.6074065, 33.4136283 ], [ 131.6071356, 33.4132992 ] ] ] } },
{ "type": "Feature", "properties": { "natural": "water", "source": null, "water": "lake", "landuse": null, "layer": null, "type": null, "area_m2": 394242.3063759433, "name": "Unnamed", "simple_id": 18 }, "geometry": { "type": "Polygon", "coordinates": [ [ [ 131.4341365, 33.431232 ], [ 131.432865099999987, 33.431479 ], [ 131.432858900000014, 33.4315889 ], [ 131.4328232, 33.4316469 ], [ 131.4327926, 33.431737 ], [ 131.4327849, 33.4318745 ], [ 131.4328018, 33.4320075 ], [ 131.432777, 33.4320796 ], [ 131.4327618, 33.4321919 ], [ 131.432705199999987, 33.4322519 ], [ 131.4326465, 33.4322462 ], [ 131.4325805, 33.4322757 ], [ 131.4325476, 33.4323269 ], [ 131.4324997, 33.4324118 ], [ 131.432495, 33.4325036 ], [ 131.4325536, 33.4325729 ], [ 131.432631500000014, 33.4326342 ], [ 131.43268230000001, 33.4327311 ], [ 131.4327209, 33.4328412 ], [ 131.4327221, 33.4329363 ], [ 131.4326867, 33.4329968 ], [ 131.4326206, 33.4330915 ], [ 131.4325638, 33.4332256 ], [ 131.4325882, 33.4332853 ], [ 131.4326456, 33.4333938 ], [ 131.432666399999988, 33.43347 ], [ 131.4326962, 33.4335175 ], [ 131.432643399999989, 33.4337984 ], [ 131.4326351, 33.4338567 ], [ 131.4325935, 33.4338948 ], [ 131.43256070000001, 33.4339276 ], [ 131.4325253, 33.4339781 ], [ 131.432517499999989, 33.4340425 ], [ 131.4325229, 33.4341221 ], [ 131.4325557, 33.4341862 ], [ 131.4325441, 33.4342193 ], [ 131.4324957, 33.4342849 ], [ 131.4324651, 33.4343607 ], [ 131.4324652, 33.4344776 ], [ 131.432475399999987, 33.4346073 ], [ 131.4324532, 33.4346864 ], [ 131.4324158, 33.4347262 ], [ 131.432361500000013, 33.4347448 ], [ 131.4322894, 33.434767 ], [ 131.432166200000012, 33.4347989 ], [ 131.4320416, 33.4348224 ], [ 131.431923899999987, 33.4348921 ], [ 131.431831, 33.4349574 ], [ 131.4317724, 33.434964 ], [ 131.4317078, 33.434951 ], [ 131.4317002, 33.4350053 ], [ 131.4317825, 33.435166 ], [ 131.4317796, 33.4352371 ], [ 131.4318142, 33.435305 ], [ 131.43194410000001, 33.435311 ], [ 131.4319896, 33.4353293 ], [ 131.4320214, 33.4354563 ], [ 131.4320799, 33.4355266 ], [ 131.432084800000013, 33.4355588 ], [ 131.4320734, 33.4356401 ], [ 131.4320687, 33.4357193 ], [ 131.432010100000014, 33.4357639 ], [ 131.43198670000001, 33.4358658 ], [ 131.4318998, 33.4359465 ], [ 131.4318417, 33.4360669 ], [ 131.4318111, 33.4362054 ], [ 131.4316962, 33.4363031 ], [ 131.431601699999987, 33.4363654 ], [ 131.4315842, 33.4364283 ], [ 131.4315095, 33.4364877 ], [ 131.4314415, 33.4364871 ], [ 131.4314264, 33.4365256 ], [ 131.431470499999989, 33.4365537 ], [ 131.4314673, 33.4366105 ], [ 131.4314703, 33.4366738 ], [ 131.43146440000001, 33.4367045 ], [ 131.431466199999988, 33.4367356 ], [ 131.431509299999988, 33.4367822 ], [ 131.431513700000011, 33.4368193 ], [ 131.431554299999988, 33.4368559 ], [ 131.4315291, 33.4368782 ], [ 131.431551500000012, 33.4369144 ], [ 131.431610400000011, 33.4368935 ], [ 131.4339789, 33.4373045 ], [ 131.4340282, 33.4372783 ], [ 131.434136, 33.4373478 ], [ 131.434414800000013, 33.4371684 ], [ 131.434343, 33.4370873 ], [ 131.4344202, 33.4370435 ], [ 131.4344931, 33.4370105 ], [ 131.4345687, 33.4369849 ], [ 131.434650299999987, 33.4369651 ], [ 131.434729299999987, 33.4369586 ], [ 131.434812599999987, 33.4369573 ], [ 131.434899, 33.4369579 ], [ 131.434963, 33.4369654 ], [ 131.435072100000014, 33.4369592 ], [ 131.4359062, 33.4369976 ], [ 131.4360317, 33.4368953 ], [ 131.436094200000014, 33.4368817 ], [ 131.436232100000012, 33.4368444 ], [ 131.43631160000001, 33.4368117 ], [ 131.4363722, 33.4367688 ], [ 131.4364712, 33.4367382 ], [ 131.436506799999989, 33.4366883 ], [ 131.4366128, 33.436678 ], [ 131.436629399999987, 33.4366379 ], [ 131.436667699999987, 33.4366054 ], [ 131.436758200000014, 33.4366336 ], [ 131.436867, 33.4365862 ], [ 131.4369317, 33.436539 ], [ 131.437007200000011, 33.4365134 ], [ 131.4370897, 33.4364827 ], [ 131.437124, 33.4364793 ], [ 131.4371587, 33.436483 ], [ 131.437182799999988, 33.4365243 ], [ 131.4372157, 33.4365362 ], [ 131.437318, 33.4365186 ], [ 131.437366700000013, 33.4365592 ], [ 131.437397299999986, 33.4365773 ], [ 131.4374535, 33.436619 ], [ 131.437551500000012, 33.4367261 ], [ 131.4376122, 33.4367453 ], [ 131.437657300000012, 33.43679 ], [ 131.437817200000012, 33.436928 ], [ 131.4379256, 33.4369153 ], [ 131.4379999, 33.4369425 ], [ 131.4380587, 33.4369835 ], [ 131.4380888, 33.436978 ], [ 131.4381088, 33.4369619 ], [ 131.4381118, 33.4369273 ], [ 131.4381424, 33.4369027 ], [ 131.43820740000001, 33.4368847 ], [ 131.438241299999987, 33.4368602 ], [ 131.438254300000011, 33.4368114 ], [ 131.4382033, 33.4367548 ], [ 131.4380945, 33.4367169 ], [ 131.437994300000014, 33.4365365 ], [ 131.437843500000014, 33.4363189 ], [ 131.4376628, 33.4359708 ], [ 131.4376485, 33.435832 ], [ 131.4377096, 33.4357078 ], [ 131.4377491, 33.4356252 ], [ 131.4377948, 33.4354516 ], [ 131.4379877, 33.4351889 ], [ 131.438109700000012, 33.4349427 ], [ 131.4382943, 33.4345866 ], [ 131.4385091, 33.4343477 ], [ 131.4387348, 33.4341276 ], [ 131.4389208, 33.4339886 ], [ 131.4390296, 33.4336673 ], [ 131.4391757, 33.4334212 ], [ 131.4392799, 33.4331543 ], [ 131.43931760000001, 33.4330095 ], [ 131.4393629, 33.4329154 ], [ 131.4393627, 33.4328679 ], [ 131.4394001, 33.4327769 ], [ 131.43945930000001, 33.432726 ], [ 131.4394413, 33.432618 ], [ 131.4393923, 33.4325895 ], [ 131.4392533, 33.432614 ], [ 131.4391382, 33.4327543 ], [ 131.4390234, 33.4328414 ], [ 131.438943, 33.4328487 ], [ 131.438820099999987, 33.4329537 ], [ 131.4386778, 33.4331551 ], [ 131.4385866, 33.4332602 ], [ 131.4383699, 33.4333864 ], [ 131.4380514, 33.4335619 ], [ 131.4379264, 33.4335772 ], [ 131.4378317, 33.4335715 ], [ 131.4376366, 33.4336615 ], [ 131.437485400000014, 33.433655 ], [ 131.437577800000014, 33.4337227 ], [ 131.4376231, 33.4338168 ], [ 131.437642899999986, 33.4340319 ], [ 131.4375373, 33.4342658 ], [ 131.4374271, 33.4344902 ], [ 131.437299700000011, 33.4345808 ], [ 131.437231200000014, 33.4346397 ], [ 131.437094, 33.4349184 ], [ 131.436983, 33.4349513 ], [ 131.436905599999989, 33.4350242 ], [ 131.4367746, 33.4351294 ], [ 131.436671100000012, 33.4351533 ], [ 131.436602, 33.4352432 ], [ 131.4365205, 33.4352758 ], [ 131.436416400000013, 33.4354284 ], [ 131.4363414, 33.43551 ], [ 131.436138, 33.4355404 ], [ 131.436052600000011, 33.435527 ], [ 131.4358651, 33.4355812 ], [ 131.4357148, 33.4355849 ], [ 131.435577599999988, 33.4355391 ], [ 131.4355136, 33.4354673 ], [ 131.4354702, 33.4354117 ], [ 131.435414900000012, 33.435244 ], [ 131.4353559, 33.435075 ], [ 131.4353376, 33.4349954 ], [ 131.4353399, 33.4349087 ], [ 131.4353997, 33.4341931 ], [ 131.4354353, 33.4341608 ], [ 131.43546, 33.4341038 ], [ 131.4354267, 33.4339702 ], [ 131.4353873, 33.4339185 ], [ 131.4353198, 33.4337838 ], [ 131.4352874, 33.4336393 ], [ 131.4352776, 33.4335245 ], [ 131.435275499999989, 33.4333334 ], [ 131.4353094, 33.4332277 ], [ 131.435382299999986, 33.4331444 ], [ 131.4355026, 33.4330805 ], [ 131.4357086, 33.4330025 ], [ 131.435810800000013, 33.4329603 ], [ 131.4358894, 33.4329093 ], [ 131.4360672, 33.4328031 ], [ 131.436176100000012, 33.432753 ], [ 131.4362523, 33.4327579 ], [ 131.4363543, 33.4327185 ], [ 131.4364515, 33.4326832 ], [ 131.4364723, 33.4326068 ], [ 131.4365036, 33.4324854 ], [ 131.4365608, 33.4323814 ], [ 131.4366186, 33.4323785 ], [ 131.436633699999987, 33.4322927 ], [ 131.4365652, 33.4322492 ], [ 131.4365827, 33.4321105 ], [ 131.4366422, 33.4319414 ], [ 131.4366642, 33.4317637 ], [ 131.436711800000012, 33.4316185 ], [ 131.4367722, 33.4314769 ], [ 131.436857300000014, 33.4313696 ], [ 131.436851600000011, 33.4312971 ], [ 131.436808500000012, 33.431226 ], [ 131.4367248, 33.4311561 ], [ 131.4366899, 33.4310909 ], [ 131.4366367, 33.4309424 ], [ 131.4365756, 33.4308264 ], [ 131.4364792, 33.4307575 ], [ 131.4364515, 33.4306608 ], [ 131.4364182, 33.4305646 ], [ 131.4363696, 33.4305352 ], [ 131.436355600000013, 33.4304814 ], [ 131.4362813, 33.4304081 ], [ 131.436267, 33.4303751 ], [ 131.4356621, 33.4303557 ], [ 131.4356482, 33.4303883 ], [ 131.4356032, 33.4304654 ], [ 131.43556, 33.4305164 ], [ 131.4354796, 33.4306059 ], [ 131.4354543, 33.4306656 ], [ 131.435447900000014, 33.430722 ], [ 131.4354542, 33.4308206 ], [ 131.4354282, 33.4310071 ], [ 131.4353309, 33.4311725 ], [ 131.4352661, 33.4312771 ], [ 131.435194599999988, 33.4313419 ], [ 131.4350916, 33.4314019 ], [ 131.4350604, 33.4314153 ], [ 131.434974399999987, 33.4314611 ], [ 131.434899800000011, 33.4314496 ], [ 131.434777700000012, 33.4314719 ], [ 131.4346429, 33.4314872 ], [ 131.434497, 33.4314688 ], [ 131.4344006, 33.4314302 ], [ 131.4343673, 33.4314169 ], [ 131.434313, 33.4313839 ], [ 131.4342667, 33.4313563 ], [ 131.4342068, 33.4313316 ], [ 131.434159099999988, 33.4312937 ], [ 131.4341365, 33.431232 ] ] ] } },
{ "type": "Feature", "properties": { "natural": "water", "source": null, "water": "lake", "landuse": null, "layer": null, "type": null, "area_m2": 125737.16997696161, "name": "Unnamed", "simple_id": 19 }, "geometry": { "type": "Polygon", "coordinates": [ [ [ 131.432861800000012, 33.4313661 ], [ 131.4328654, 33.4314369 ], [ 131.434124700000012, 33.431189 ], [ 131.434102599999989, 33.4310982 ], [ 131.4340971, 33.4310377 ], [ 131.4341054, 33.4309843 ], [ 131.4341047, 33.4309457 ], [ 131.4341072, 33.4308985 ], [ 131.434127499999988, 33.4308364 ], [ 131.4341648, 33.4307858 ], [ 131.4342087, 33.4307434 ], [ 131.4342452, 33.4306775 ], [ 131.4342548, 33.4306502 ], [ 131.4342504, 33.4306053 ], [ 131.4342887, 33.4305307 ], [ 131.4342905, 33.4304986 ], [ 131.4343228, 33.4304759 ], [ 131.43434, 33.4304272 ], [ 131.434407599999986, 33.4303836 ], [ 131.4344187, 33.4303589 ], [ 131.4344458, 33.4303016 ], [ 131.4344451, 33.4302413 ], [ 131.4344798, 33.4301633 ], [ 131.434494699999988, 33.430158 ], [ 131.4345023, 33.430118 ], [ 131.4345171, 33.4300989 ], [ 131.434576600000014, 33.4300588 ], [ 131.4346267, 33.4300415 ], [ 131.4346351, 33.4300159 ], [ 131.4347218, 33.4299797 ], [ 131.4347412, 33.429956 ], [ 131.4347683, 33.4299444 ], [ 131.434798699999988, 33.4299351 ], [ 131.4348326, 33.4299089 ], [ 131.434862, 33.4298894 ], [ 131.4349281, 33.4298722 ], [ 131.434999299999987, 33.42986 ], [ 131.4350595, 33.4298815 ], [ 131.435099900000012, 33.4298892 ], [ 131.4351686, 33.4299252 ], [ 131.435199, 33.4299296 ], [ 131.4353018, 33.429993 ], [ 131.4354131, 33.4300592 ], [ 131.4354227, 33.4300729 ], [ 131.4354261, 33.4301026 ], [ 131.435473800000011, 33.4300905 ], [ 131.435508, 33.4300935 ], [ 131.4355688, 33.4301151 ], [ 131.4356099, 33.430141 ], [ 131.4356465, 33.4301983 ], [ 131.4356728, 33.4302724 ], [ 131.4356836, 33.430305 ], [ 131.4362518, 33.4303315 ], [ 131.4362348, 33.4302874 ], [ 131.436196700000011, 33.4302175 ], [ 131.436121, 33.4301691 ], [ 131.4360969, 33.4300808 ], [ 131.4360718, 33.4300044 ], [ 131.436047699999989, 33.4298604 ], [ 131.435969699999987, 33.4297744 ], [ 131.435890199999989, 33.4296436 ], [ 131.4357657, 33.4295511 ], [ 131.43569930000001, 33.4294584 ], [ 131.4356071, 33.429377 ], [ 131.4355961, 33.4292786 ], [ 131.4356272, 33.4291709 ], [ 131.4357082, 33.4290819 ], [ 131.4357709, 33.4290281 ], [ 131.4359077, 33.4289523 ], [ 131.4360896, 33.4288893 ], [ 131.4362758, 33.4288256 ], [ 131.436453, 33.4287632 ], [ 131.4365426, 33.4286895 ], [ 131.436642, 33.4285987 ], [ 131.436722300000014, 33.4285569 ], [ 131.4368294, 33.4284169 ], [ 131.4370647, 33.4284055 ], [ 131.4372584, 33.428292 ], [ 131.437351299999989, 33.4282433 ], [ 131.4374537, 33.4282114 ], [ 131.4374671, 33.4281455 ], [ 131.437473, 33.4280011 ], [ 131.4374985, 33.4278501 ], [ 131.437543799999986, 33.4277688 ], [ 131.437572, 33.427722 ], [ 131.437548, 33.4276484 ], [ 131.4375535, 33.4275976 ], [ 131.4376038, 33.4275476 ], [ 131.437655400000011, 33.4275206 ], [ 131.437659, 33.4274788 ], [ 131.437643400000013, 33.4274084 ], [ 131.4375949, 33.4273616 ], [ 131.4375298, 33.4273421 ], [ 131.437492099999986, 33.42736 ], [ 131.4373914, 33.4273767 ], [ 131.4373453, 33.4273648 ], [ 131.4373223, 33.4273314 ], [ 131.4372391, 33.427331 ], [ 131.4371462, 33.4273665 ], [ 131.43711780000001, 33.4273913 ], [ 131.4371089, 33.427473 ], [ 131.437113399999987, 33.4275473 ], [ 131.4370413, 33.4276114 ], [ 131.4369683, 33.4277087 ], [ 131.436919100000011, 33.4277956 ], [ 131.4368706, 33.4278124 ], [ 131.4367776, 33.4278755 ], [ 131.4366779, 33.4279136 ], [ 131.436589700000013, 33.427909 ], [ 131.436497300000013, 33.4278887 ], [ 131.436431700000014, 33.4278217 ], [ 131.436328300000014, 33.4277396 ], [ 131.4362615, 33.4276764 ], [ 131.436211, 33.4276057 ], [ 131.4361455, 33.4275232 ], [ 131.4360356, 33.4273886 ], [ 131.435972, 33.4272896 ], [ 131.4358935, 33.4272075 ], [ 131.435840399999989, 33.4271129 ], [ 131.435778199999987, 33.4270141 ], [ 131.435692100000011, 33.4269473 ], [ 131.43567920000001, 33.4268122 ], [ 131.435707400000013, 33.4266509 ], [ 131.43572, 33.4266112 ], [ 131.4357459, 33.426569 ], [ 131.4357592, 33.4265323 ], [ 131.4357613, 33.4264869 ], [ 131.4357544, 33.4264432 ], [ 131.4357259, 33.4262926 ], [ 131.4356952, 33.4262274 ], [ 131.435663299999987, 33.4261919 ], [ 131.435603, 33.4261414 ], [ 131.435512499999987, 33.4260934 ], [ 131.4353993, 33.4260201 ], [ 131.4352436, 33.4261998 ], [ 131.435179299999987, 33.4262343 ], [ 131.4352322, 33.4263197 ], [ 131.435231, 33.4263831 ], [ 131.43511190000001, 33.4267002 ], [ 131.435115599999989, 33.4269997 ], [ 131.4352446, 33.4271911 ], [ 131.435387, 33.4272883 ], [ 131.435476200000011, 33.4274847 ], [ 131.43553940000001, 33.4277032 ], [ 131.43553, 33.4278817 ], [ 131.435451199999989, 33.4280588 ], [ 131.435317, 33.428195 ], [ 131.435205599999989, 33.4282929 ], [ 131.435133400000012, 33.4284235 ], [ 131.4349627, 33.4285104 ], [ 131.4347525, 33.4285552 ], [ 131.43462, 33.4285682 ], [ 131.43455130000001, 33.4286162 ], [ 131.4345267, 33.4287107 ], [ 131.4344357, 33.4288639 ], [ 131.4343069, 33.4289896 ], [ 131.434192200000012, 33.4290073 ], [ 131.4341159, 33.429106 ], [ 131.43398160000001, 33.4291822 ], [ 131.433891, 33.4292961 ], [ 131.43385760000001, 33.4293909 ], [ 131.433772299999987, 33.4294908 ], [ 131.433708599999989, 33.4295564 ], [ 131.4336266, 33.4295908 ], [ 131.4335889, 33.4296844 ], [ 131.4333844, 33.4297711 ], [ 131.4333071, 33.4297701 ], [ 131.4331484, 33.4296851 ], [ 131.4330783, 33.4297092 ], [ 131.433000600000014, 33.4296963 ], [ 131.4329171, 33.4296551 ], [ 131.432828199999989, 33.4296205 ], [ 131.432746900000012, 33.4295498 ], [ 131.4326408, 33.4295233 ], [ 131.4325251, 33.4295063 ], [ 131.4324337, 33.4294368 ], [ 131.432350899999989, 33.4293944 ], [ 131.4322477, 33.4293722 ], [ 131.4321851, 33.4293809 ], [ 131.4320844, 33.4293429 ], [ 131.4320035, 33.4293033 ], [ 131.4319275, 33.4292366 ], [ 131.4318206, 33.4291954 ], [ 131.431859300000013, 33.4293174 ], [ 131.431902, 33.4293556 ], [ 131.4319486, 33.4294244 ], [ 131.4319619, 33.4294855 ], [ 131.43209250000001, 33.429608 ], [ 131.4321501, 33.4296762 ], [ 131.4323348, 33.4297559 ], [ 131.4324361, 33.4298314 ], [ 131.4325512, 33.4299252 ], [ 131.432618100000013, 33.4300443 ], [ 131.432686, 33.4301836 ], [ 131.432763099999988, 33.4303299 ], [ 131.432836900000012, 33.4304604 ], [ 131.4328496, 33.430516 ], [ 131.4328367, 33.4305894 ], [ 131.432794199999989, 33.4306049 ], [ 131.4326074, 33.4306611 ], [ 131.4325804, 33.4307453 ], [ 131.432587, 33.4308334 ], [ 131.432453900000013, 33.430998 ], [ 131.4324205, 33.4310812 ], [ 131.4323426, 33.4311455 ], [ 131.432274299999989, 33.4311684 ], [ 131.4321875, 33.431186 ], [ 131.432142199999987, 33.4312034 ], [ 131.432142700000014, 33.4312555 ], [ 131.432201099999986, 33.431302 ], [ 131.432278700000012, 33.4313151 ], [ 131.432365, 33.4313553 ], [ 131.4324067, 33.4313624 ], [ 131.4324516, 33.4313489 ], [ 131.4324969, 33.4313448 ], [ 131.4327227, 33.4312908 ], [ 131.4327873, 33.4312778 ], [ 131.4328279, 33.4312893 ], [ 131.4328543, 33.4313264 ], [ 131.432861800000012, 33.4313661 ] ] ] } },
{ "type": "Feature", "properties": { "natural": "water", "source": null, "water": null, "landuse": null, "layer": null, "type": null, "area_m2": 71082.879372442287, "name": "Unnamed", "simple_id": 20 }, "geometry": { "type": "Polygon", "coordinates": [ [ [ 131.452569399999987, 33.4520906 ], [ 131.45304680000001, 33.4517728 ], [ 131.4529073, 33.4515446 ], [ 131.452939500000014, 33.4513118 ], [ 131.4531058, 33.4511104 ], [ 131.4535028, 33.450354 ], [ 131.4535832, 33.4501347 ], [ 131.453838, 33.4501548 ], [ 131.453958699999987, 33.4500765 ], [ 131.4539802, 33.4500093 ], [ 131.4538112, 33.4498236 ], [ 131.4533338, 33.4497475 ], [ 131.4529636, 33.4496557 ], [ 131.452716900000013, 33.4494812 ], [ 131.452534500000013, 33.4492507 ], [ 131.4519846, 33.4486151 ], [ 131.4519417, 33.4484069 ], [ 131.452000700000013, 33.4482011 ], [ 131.451657399999988, 33.4478788 ], [ 131.4513624, 33.4477624 ], [ 131.4509118, 33.4475073 ], [ 131.4506757, 33.4474446 ], [ 131.450273399999986, 33.447467 ], [ 131.4506811, 33.4478922 ], [ 131.4508796, 33.4480802 ], [ 131.4510137, 33.4482951 ], [ 131.451062, 33.4485994 ], [ 131.451137100000011, 33.4486263 ], [ 131.451373100000012, 33.4486889 ], [ 131.4515662, 33.4489888 ], [ 131.4515877, 33.4492663 ], [ 131.4517593, 33.4495662 ], [ 131.451791500000013, 33.4497139 ], [ 131.4519042, 33.4500989 ], [ 131.4521187, 33.4502958 ], [ 131.4521134, 33.4504569 ], [ 131.4519793, 33.4507926 ], [ 131.4520276, 33.4510298 ], [ 131.4521724, 33.4515446 ], [ 131.4523548, 33.4518847 ], [ 131.4523709, 33.4519832 ], [ 131.452569399999987, 33.4520906 ] ] ] } },
{ "type": "Feature", "properties": { "natural": "water", "source": null, "water": null, "landuse": null, "layer": null, "type": null, "area_m2": 107330.24589656015, "name": "Unnamed", "simple_id": 21 }, "geometry": { "type": "Polygon", "coordinates": [ [ [ 131.5816212, 33.4478788 ], [ 131.5809452, 33.4466076 ], [ 131.5809452, 33.4454349 ], [ 131.5812564, 33.4449693 ], [ 131.5815997, 33.4447813 ], [ 131.582447300000013, 33.4447187 ], [ 131.5820503, 33.4436265 ], [ 131.5818036, 33.4436802 ], [ 131.5818089, 33.4437831 ], [ 131.5813422, 33.4438369 ], [ 131.5810686, 33.4436623 ], [ 131.580982799999987, 33.4434385 ], [ 131.580542900000012, 33.4426865 ], [ 131.580172800000014, 33.4425522 ], [ 131.5797222, 33.4424582 ], [ 131.579416400000014, 33.4423642 ], [ 131.579073099999988, 33.4422478 ], [ 131.5788102, 33.442212 ], [ 131.5785634, 33.4422746 ], [ 131.5782255, 33.4426462 ], [ 131.577823200000012, 33.4431923 ], [ 131.5770614, 33.443801 ], [ 131.5774208, 33.44381 ], [ 131.578263, 33.443331 ], [ 131.5788317, 33.4429953 ], [ 131.5791964, 33.4429327 ], [ 131.5793627, 33.4429327 ], [ 131.5795076, 33.4430222 ], [ 131.579834799999986, 33.4432952 ], [ 131.5800923, 33.4439846 ], [ 131.580172800000014, 33.4442173 ], [ 131.580199599999986, 33.4445665 ], [ 131.580199599999986, 33.4449783 ], [ 131.5801835, 33.445211 ], [ 131.5799314, 33.4456452 ], [ 131.579995700000012, 33.4459138 ], [ 131.5801835, 33.4462405 ], [ 131.5805, 33.4469836 ], [ 131.5810794, 33.4476237 ], [ 131.5814924, 33.4480265 ], [ 131.5816212, 33.4478788 ] ] ] } },
{ "type": "Feature", "properties": { "natural": "water", "source": null, "water": null, "landuse": null, "layer": null, "type": null, "area_m2": 70674.3027836603, "name": "Unnamed", "simple_id": 22 }, "geometry": { "type": "Polygon", "coordinates": [ [ [ 131.6803318, 33.4375386 ], [ 131.6809165, 33.4369611 ], [ 131.6812545, 33.4372342 ], [ 131.681495899999987, 33.4373327 ], [ 131.6822201, 33.4374177 ], [ 131.6824508, 33.437852 ], [ 131.682568800000013, 33.4381519 ], [ 131.6830033, 33.4392039 ], [ 131.6833359, 33.4395485 ], [ 131.6837329, 33.4398529 ], [ 131.6841727, 33.4401931 ], [ 131.6843122, 33.4403767 ], [ 131.6840118, 33.440408 ], [ 131.6834325, 33.4400991 ], [ 131.682837, 33.4397276 ], [ 131.6825902, 33.4395127 ], [ 131.6821396, 33.4392755 ], [ 131.6819304, 33.4393158 ], [ 131.6816086, 33.4395888 ], [ 131.6815174, 33.4396381 ], [ 131.6811526, 33.4394948 ], [ 131.681082800000013, 33.439374 ], [ 131.681157899999988, 33.4390114 ], [ 131.680975600000011, 33.4384697 ], [ 131.6807771, 33.4383488 ], [ 131.6804445, 33.4381608 ], [ 131.680423, 33.4380221 ], [ 131.6803318, 33.4375386 ] ] ] } },
{ "type": "Feature", "properties": { "natural": "water", "source": null, "water": null, "landuse": null, "layer": null, "type": null, "area_m2": 94185.8512713706, "name": "Unnamed", "simple_id": 23 }, "geometry": { "type": "Polygon", "coordinates": [ [ [ 131.6653061, 33.435542 ], [ 131.6659445, 33.4354615 ], [ 131.666690100000011, 33.434884 ], [ 131.6673499, 33.4346691 ], [ 131.6677898, 33.4345124 ], [ 131.668465700000013, 33.433917 ], [ 131.6692382, 33.43295 ], [ 131.6697586, 33.4326053 ], [ 131.6700965, 33.4322651 ], [ 131.670788499999986, 33.4314816 ], [ 131.6710943, 33.4314906 ], [ 131.671469800000011, 33.4317458 ], [ 131.6717595, 33.4319114 ], [ 131.671727299999986, 33.431119 ], [ 131.6719204, 33.4306668 ], [ 131.672135, 33.4304564 ], [ 131.6709602, 33.4297491 ], [ 131.6705096, 33.4301162 ], [ 131.670295, 33.4305101 ], [ 131.670053599999989, 33.4308011 ], [ 131.6698927, 33.4310563 ], [ 131.6696835, 33.4313339 ], [ 131.669270399999988, 33.4317458 ], [ 131.6692597, 33.4320144 ], [ 131.6690934, 33.4323367 ], [ 131.6686267, 33.432659 ], [ 131.6673016, 33.434105 ], [ 131.666953, 33.4344273 ], [ 131.6660732, 33.4350496 ], [ 131.6653061, 33.435542 ] ] ] } },
{ "type": "Feature", "properties": { "natural": "water", "source": null, "water": null, "landuse": null, "layer": null, "type": null, "area_m2": 16947.306620152678, "name": "Unnamed", "simple_id": 24 }, "geometry": { "type": "Polygon", "coordinates": [ [ [ 131.5847068, 33.399162 ], [ 131.584703600000012, 33.3991839 ], [ 131.584726, 33.3991892 ], [ 131.5847861, 33.3991842 ], [ 131.584883, 33.3991669 ], [ 131.585003199999989, 33.3991418 ], [ 131.5851944, 33.3991399 ], [ 131.585253, 33.3991368 ], [ 131.5852944, 33.3991223 ], [ 131.585359899999986, 33.3990766 ], [ 131.5854026, 33.3990482 ], [ 131.5855357, 33.3990098 ], [ 131.585595, 33.398984 ], [ 131.585627, 33.3989489 ], [ 131.5856277, 33.3988937 ], [ 131.5856157, 33.3987689 ], [ 131.5856078, 33.3986477 ], [ 131.5857005, 33.3986421 ], [ 131.585719399999988, 33.3987404 ], [ 131.585735, 33.3989374 ], [ 131.5857476, 33.3989457 ], [ 131.58576690000001, 33.3989422 ], [ 131.585802, 33.3989263 ], [ 131.5858534, 33.3988853 ], [ 131.5859332, 33.398808 ], [ 131.586015800000013, 33.3987217 ], [ 131.586086599999987, 33.39863 ], [ 131.586183299999988, 33.3985553 ], [ 131.586369499999989, 33.3984171 ], [ 131.58647, 33.3983412 ], [ 131.5865495, 33.3982656 ], [ 131.586572600000011, 33.3982229 ], [ 131.5865732, 33.3981958 ], [ 131.5865431, 33.3981567 ], [ 131.5864661, 33.3980696 ], [ 131.5863617, 33.3979229 ], [ 131.5862864, 33.3978152 ], [ 131.586180399999989, 33.3976573 ], [ 131.586122499999988, 33.3976263 ], [ 131.58607760000001, 33.3976123 ], [ 131.5860509, 33.3976242 ], [ 131.5860336, 33.3976345 ], [ 131.5859527, 33.3977668 ], [ 131.5858772, 33.3978778 ], [ 131.5858299, 33.3979718 ], [ 131.5857875, 33.3980668 ], [ 131.5857574, 33.3981031 ], [ 131.58572, 33.3981302 ], [ 131.5856977, 33.3981334 ], [ 131.5856708, 33.3981486 ], [ 131.5856809, 33.3983743 ], [ 131.5857016, 33.3986011 ], [ 131.5856173, 33.398603 ], [ 131.5856023, 33.3985872 ], [ 131.5855765, 33.3982374 ], [ 131.58554620000001, 33.3982368 ], [ 131.5855225, 33.3982396 ], [ 131.585486800000012, 33.3982555 ], [ 131.5854534, 33.3982784 ], [ 131.5854033, 33.3983277 ], [ 131.5853418, 33.3984044 ], [ 131.5852998, 33.3984618 ], [ 131.5852779, 33.3984909 ], [ 131.5851769, 33.3985519 ], [ 131.585101, 33.3985984 ], [ 131.5850523, 33.3986322 ], [ 131.5849882, 33.3986656 ], [ 131.5849471, 33.3986795 ], [ 131.58491, 33.3986896 ], [ 131.5848703, 33.3986949 ], [ 131.5848335, 33.3987041 ], [ 131.5848107, 33.3987198 ], [ 131.5848005, 33.3987417 ], [ 131.5848035, 33.3987969 ], [ 131.5848339, 33.3988675 ], [ 131.5848471, 33.3989121 ], [ 131.5848265, 33.398955 ], [ 131.5847995, 33.3989865 ], [ 131.5847933, 33.3990092 ], [ 131.584794100000011, 33.3990454 ], [ 131.584786799999989, 33.399073 ], [ 131.584748, 33.3991251 ], [ 131.5847068, 33.399162 ] ] ] } },
{ "type": "Feature", "properties": { "natural": "water", "source": null, "water": null, "landuse": null, "layer": null, "type": null, "area_m2": 43190.463902887248, "name": "Unnamed", "simple_id": 25 }, "geometry": { "type": "Polygon", "coordinates": [ [ [ 131.5906388, 33.4302818 ], [ 131.591486300000014, 33.4301475 ], [ 131.591641900000013, 33.4300132 ], [ 131.591561399999989, 33.4298789 ], [ 131.5911591, 33.4293014 ], [ 131.5908265, 33.4289969 ], [ 131.5908158, 33.4288089 ], [ 131.5908211, 33.4285537 ], [ 131.5907568, 33.4281195 ], [ 131.590751399999988, 33.4278956 ], [ 131.5906709, 33.4277165 ], [ 131.590515399999987, 33.427721 ], [ 131.590054, 33.4280478 ], [ 131.5897697, 33.4282359 ], [ 131.5894854, 33.4281866 ], [ 131.589233299999989, 33.4280075 ], [ 131.588841699999989, 33.4278598 ], [ 131.588557400000013, 33.4275285 ], [ 131.588294499999989, 33.42743 ], [ 131.588353500000011, 33.4279538 ], [ 131.5887076, 33.4281821 ], [ 131.589158200000014, 33.4283523 ], [ 131.589528300000012, 33.4285627 ], [ 131.589759, 33.4287418 ], [ 131.5899521, 33.4289656 ], [ 131.5902954, 33.4294805 ], [ 131.5906388, 33.4302818 ] ] ] } },
{ "type": "Feature", "properties": { "natural": "water", "source": null, "water": null, "landuse": null, "layer": null, "type": null, "area_m2": 20773.301457620964, "name": "Unnamed", "simple_id": 26 }, "geometry": { "type": "Polygon", "coordinates": [ [ [ 131.6022581, 33.4306086 ], [ 131.602483400000011, 33.4306221 ], [ 131.6025692, 33.4305415 ], [ 131.6029823, 33.4300983 ], [ 131.603550899999988, 33.4299237 ], [ 131.6037011, 33.4298744 ], [ 131.60400150000001, 33.4297938 ], [ 131.6041464, 33.4295745 ], [ 131.6042161, 33.4292477 ], [ 131.60402830000001, 33.4289611 ], [ 131.6038299, 33.4287865 ], [ 131.6037977, 33.4285582 ], [ 131.6037548, 33.4284776 ], [ 131.603524099999987, 33.4284418 ], [ 131.6034061, 33.4284552 ], [ 131.6030467, 33.4286925 ], [ 131.602923299999986, 33.4289969 ], [ 131.6030252, 33.4290596 ], [ 131.603239800000011, 33.4290641 ], [ 131.6034651, 33.4290596 ], [ 131.6037011, 33.4292029 ], [ 131.6037816, 33.4293238 ], [ 131.6037494, 33.4294446 ], [ 131.603685, 33.4294849 ], [ 131.6034061, 33.4295387 ], [ 131.6032183, 33.4296013 ], [ 131.6027516, 33.4299774 ], [ 131.6022795, 33.4302236 ], [ 131.6022956, 33.4303803 ], [ 131.6022581, 33.4306086 ] ] ] } },
{ "type": "Feature", "properties": { "natural": "water", "source": null, "water": null, "landuse": null, "layer": null, "type": null, "area_m2": 55427.490682035816, "name": "Unnamed", "simple_id": 27 }, "geometry": { "type": "Polygon", "coordinates": [ [ [ 131.607391799999988, 33.3978316 ], [ 131.60784240000001, 33.39879 ], [ 131.607939, 33.3990677 ], [ 131.608175, 33.3993633 ], [ 131.6083681, 33.3996051 ], [ 131.6084003, 33.4000529 ], [ 131.608829500000013, 33.4003396 ], [ 131.608969, 33.4003485 ], [ 131.6092157, 33.4002052 ], [ 131.60953760000001, 33.4000664 ], [ 131.60992920000001, 33.3999723 ], [ 131.610578299999986, 33.398893 ], [ 131.6105944, 33.398687 ], [ 131.6105086, 33.3985213 ], [ 131.6103262, 33.3985213 ], [ 131.610138400000011, 33.3985929 ], [ 131.609821899999986, 33.3985929 ], [ 131.609505399999989, 33.3986736 ], [ 131.609382, 33.398799 ], [ 131.6090763, 33.3986825 ], [ 131.6090065, 33.3986556 ], [ 131.6087705, 33.3986422 ], [ 131.608539799999988, 33.3986288 ], [ 131.607863900000012, 33.397957 ], [ 131.6076171, 33.3975897 ], [ 131.607391799999988, 33.3978316 ] ] ] } },
{ "type": "Feature", "properties": { "natural": "water", "source": null, "water": null, "landuse": null, "layer": null, "type": null, "area_m2": 9096.1561975387813, "name": "Unnamed", "simple_id": 28 }, "geometry": { "type": "Polygon", "coordinates": [ [ [ 131.5809184, 33.4296327 ], [ 131.581556799999987, 33.4292297 ], [ 131.5811866, 33.428782 ], [ 131.5809506, 33.428688 ], [ 131.580671700000011, 33.4286656 ], [ 131.580430299999989, 33.428688 ], [ 131.580323, 33.4288044 ], [ 131.5804034, 33.4289656 ], [ 131.580591199999986, 33.4290462 ], [ 131.5807307, 33.4291133 ], [ 131.580800399999987, 33.4293685 ], [ 131.580821899999989, 33.4294625 ], [ 131.5809184, 33.4296327 ] ] ] } },
{ "type": "Feature", "properties": { "natural": "water", "source": null, "water": null, "landuse": null, "layer": null, "type": null, "area_m2": 16051.296806334976, "name": "Unnamed", "simple_id": 29 }, "geometry": { "type": "Polygon", "coordinates": [ [ [ 131.5814978, 33.4314234 ], [ 131.581825, 33.4319159 ], [ 131.582136100000014, 33.4318308 ], [ 131.5824634, 33.4316831 ], [ 131.582474100000013, 33.4315801 ], [ 131.582452600000011, 33.4311369 ], [ 131.5822595, 33.4304699 ], [ 131.5820235, 33.4302997 ], [ 131.5816426, 33.4302818 ], [ 131.5817606, 33.4306355 ], [ 131.5817499, 33.4308683 ], [ 131.5816587, 33.4311638 ], [ 131.5814978, 33.4314234 ] ] ] } },
{ "type": "Feature", "properties": { "natural": "water", "source": null, "water": null, "landuse": null, "layer": null, "type": null, "area_m2": 35267.594947271849, "name": "Unnamed", "simple_id": 30 }, "geometry": { "type": "Polygon", "coordinates": [ [ [ 131.5904188, 33.4245422 ], [ 131.590880199999987, 33.4243452 ], [ 131.591169799999989, 33.4242557 ], [ 131.5916097, 33.4242557 ], [ 131.5919423, 33.4240408 ], [ 131.5923285, 33.4237363 ], [ 131.592682599999989, 33.4236513 ], [ 131.593042, 33.4236513 ], [ 131.5933263, 33.4237453 ], [ 131.5934068, 33.4238707 ], [ 131.5935087, 33.4233871 ], [ 131.593675, 33.4232573 ], [ 131.593943200000012, 33.4230513 ], [ 131.5938735, 33.4228677 ], [ 131.5934336, 33.4228588 ], [ 131.593337100000014, 33.4227289 ], [ 131.592060300000014, 33.4229707 ], [ 131.5920389, 33.4232483 ], [ 131.591776, 33.4233916 ], [ 131.5913361, 33.4235393 ], [ 131.5910518, 33.4237901 ], [ 131.590703100000013, 33.4240542 ], [ 131.590333, 33.4243452 ], [ 131.5904188, 33.4245422 ] ] ] } },
{ "type": "Feature", "properties": { "natural": "water", "source": null, "water": null, "landuse": null, "layer": null, "type": null, "area_m2": 26972.300927935888, "name": "Unnamed", "simple_id": 31 }, "geometry": { "type": "Polygon", "coordinates": [ [ [ 131.5872109, 33.4225275 ], [ 131.5882838, 33.4223708 ], [ 131.5884608, 33.4219678 ], [ 131.5884715, 33.4217081 ], [ 131.588428599999986, 33.4214305 ], [ 131.5881765, 33.4212469 ], [ 131.588010200000014, 33.4212246 ], [ 131.587275299999988, 33.4213052 ], [ 131.5867335, 33.4214171 ], [ 131.5865296, 33.4215559 ], [ 131.5865618, 33.4216723 ], [ 131.58683, 33.4218201 ], [ 131.586883699999987, 33.4220618 ], [ 131.5869695, 33.4221559 ], [ 131.587066, 33.4222633 ], [ 131.5872109, 33.4225275 ] ] ] } },
{ "type": "Feature", "properties": { "natural": "water", "source": null, "water": null, "landuse": null, "layer": null, "type": null, "area_m2": 52227.344829209636, "name": "Unnamed", "simple_id": 32 }, "geometry": { "type": "Polygon", "coordinates": [ [ [ 131.5819806, 33.4220842 ], [ 131.582318500000014, 33.4222991 ], [ 131.5825599, 33.4223126 ], [ 131.5827477, 33.4222185 ], [ 131.5829462, 33.4220887 ], [ 131.583021300000013, 33.4219544 ], [ 131.58315, 33.4217618 ], [ 131.5833592, 33.4213186 ], [ 131.5833753, 33.4208932 ], [ 131.583412900000013, 33.4204142 ], [ 131.5832627, 33.420338 ], [ 131.583096399999988, 33.4203962 ], [ 131.5829086, 33.4205037 ], [ 131.582500900000014, 33.4206873 ], [ 131.5821791, 33.4202843 ], [ 131.582130799999987, 33.4199664 ], [ 131.5819913, 33.4196619 ], [ 131.5818357, 33.4193575 ], [ 131.581717700000013, 33.419362 ], [ 131.5815461, 33.41955 ], [ 131.5813154, 33.4204052 ], [ 131.581251, 33.4206201 ], [ 131.581347599999987, 33.4207858 ], [ 131.581471, 33.4209917 ], [ 131.5818036, 33.4217574 ], [ 131.5818787, 33.4219096 ], [ 131.5819806, 33.4220842 ] ] ] } },
{ "type": "Feature", "properties": { "natural": "water", "source": null, "water": null, "landuse": null, "layer": null, "type": null, "area_m2": 14312.276362035223, "name": "Unnamed", "simple_id": 33 }, "geometry": { "type": "Polygon", "coordinates": [ [ [ 131.6298419, 33.3979525 ], [ 131.6305393, 33.3979794 ], [ 131.6304696, 33.3973121 ], [ 131.630410500000011, 33.3969896 ], [ 131.630432, 33.3966403 ], [ 131.630432, 33.3964567 ], [ 131.6303891, 33.3963044 ], [ 131.6303676, 33.3960939 ], [ 131.6301799, 33.3960715 ], [ 131.6299546, 33.3960401 ], [ 131.6299546, 33.3959147 ], [ 131.6299009, 33.3958386 ], [ 131.629595200000011, 33.3957938 ], [ 131.6296005, 33.3959909 ], [ 131.6298634, 33.3961431 ], [ 131.6299975, 33.3963447 ], [ 131.630088699999988, 33.3965104 ], [ 131.630115499999988, 33.3967478 ], [ 131.630115499999988, 33.3969135 ], [ 131.6300565, 33.3971195 ], [ 131.629986800000012, 33.3972673 ], [ 131.6298473, 33.3974509 ], [ 131.6299224, 33.3976524 ], [ 131.6298419, 33.3979525 ] ] ] } },
{ "type": "Feature", "properties": { "natural": "water", "source": null, "water": null, "landuse": null, "layer": null, "type": null, "area_m2": 24406.85417134182, "name": "Unnamed", "simple_id": 34 }, "geometry": { "type": "Polygon", "coordinates": [ [ [ 131.629439600000012, 33.399632 ], [ 131.63020130000001, 33.3994573 ], [ 131.6302282, 33.3991841 ], [ 131.6303086, 33.3989467 ], [ 131.630485599999986, 33.3984183 ], [ 131.6305017, 33.3982167 ], [ 131.6305017, 33.3981182 ], [ 131.6298205, 33.398069 ], [ 131.6297615, 33.3984362 ], [ 131.629568299999988, 33.3986825 ], [ 131.6294074, 33.3987586 ], [ 131.6290855, 33.3986736 ], [ 131.6289246, 33.3985123 ], [ 131.6287637, 33.3983601 ], [ 131.6285062, 33.3982481 ], [ 131.6284096, 33.3983063 ], [ 131.6286135, 33.3984631 ], [ 131.628575899999987, 33.3986109 ], [ 131.6287798, 33.3987273 ], [ 131.6288334, 33.3989109 ], [ 131.6289246, 33.3990094 ], [ 131.629123099999987, 33.3991214 ], [ 131.629230400000012, 33.3992602 ], [ 131.629074800000012, 33.3995245 ], [ 131.629439600000012, 33.399632 ] ] ] } },
{ "type": "Feature", "properties": { "natural": "water", "source": null, "water": null, "landuse": null, "layer": null, "type": null, "area_m2": 38147.756676282152, "name": "Unnamed", "simple_id": 35 }, "geometry": { "type": "Polygon", "coordinates": [ [ [ 131.603905, 33.391203 ], [ 131.604934899999989, 33.3913732 ], [ 131.6055196, 33.3914986 ], [ 131.6058415, 33.3915703 ], [ 131.6060132, 33.3917271 ], [ 131.6061795, 33.3915569 ], [ 131.6061795, 33.3913195 ], [ 131.606168700000012, 33.3911358 ], [ 131.6058898, 33.391006 ], [ 131.605750300000011, 33.3909164 ], [ 131.6056859, 33.3907462 ], [ 131.605637699999988, 33.3904371 ], [ 131.6056806, 33.390258 ], [ 131.605745, 33.3900967 ], [ 131.605691299999989, 33.390034 ], [ 131.6054445, 33.3899579 ], [ 131.6051817, 33.3898146 ], [ 131.6052192, 33.3901281 ], [ 131.6052139, 33.3902893 ], [ 131.6049778, 33.3904461 ], [ 131.6045648, 33.3904192 ], [ 131.6043824, 33.3903117 ], [ 131.6042483, 33.3903028 ], [ 131.6039908, 33.3903252 ], [ 131.6037011, 33.3902221 ], [ 131.6035134, 33.3902714 ], [ 131.603395299999988, 33.3906118 ], [ 131.603905, 33.391203 ] ] ] } },
{ "type": "Feature", "properties": { "natural": "water", "source": null, "water": "reservoir", "landuse": null, "layer": null, "type": null, "area_m2": 20388.102320460806, "name": "Unnamed", "simple_id": 43 }, "geometry": { "type": "Polygon", "coordinates": [ [ [ 131.5966785, 33.4454742 ], [ 131.596633200000014, 33.445403 ], [ 131.5965692, 33.4453474 ], [ 131.5964492, 33.4452851 ], [ 131.5963425, 33.4452472 ], [ 131.5961718, 33.4452272 ], [ 131.5958411, 33.4452339 ], [ 131.5956464, 33.4452361 ], [ 131.595465100000013, 33.4452717 ], [ 131.5954037, 33.4453362 ], [ 131.595385099999987, 33.4454542 ], [ 131.5954171, 33.4455432 ], [ 131.5955131, 33.4456344 ], [ 131.5955371, 33.4456789 ], [ 131.595582400000012, 33.4457212 ], [ 131.5956224, 33.4457991 ], [ 131.5956251, 33.4458881 ], [ 131.5956171, 33.4459616 ], [ 131.595683799999989, 33.4460305 ], [ 131.5956971, 33.4460795 ], [ 131.5957238, 33.4461863 ], [ 131.595745099999988, 33.4462709 ], [ 131.5957558, 33.446302 ], [ 131.5957984, 33.4463443 ], [ 131.5958491, 33.4463131 ], [ 131.5958784, 33.4464378 ], [ 131.595918399999988, 33.4465245 ], [ 131.5959504, 33.4466047 ], [ 131.5959665, 33.4466291 ], [ 131.5960145, 33.446618 ], [ 131.5960571, 33.4466558 ], [ 131.5961345, 33.4467315 ], [ 131.5961878, 33.4467315 ], [ 131.5961931, 33.4467582 ], [ 131.59616650000001, 33.4467827 ], [ 131.5961825, 33.4468049 ], [ 131.5961771, 33.4468761 ], [ 131.5962385, 33.4468962 ], [ 131.596259800000013, 33.4468138 ], [ 131.596321100000011, 33.4468138 ], [ 131.5963772, 33.4467938 ], [ 131.596441199999987, 33.4467983 ], [ 131.596577200000013, 33.4467226 ], [ 131.5966652, 33.4466736 ], [ 131.5967185, 33.446618 ], [ 131.5967078, 33.44648 ], [ 131.5966465, 33.4464489 ], [ 131.596595799999989, 33.4463799 ], [ 131.596563800000013, 33.4462864 ], [ 131.596521200000012, 33.4461819 ], [ 131.5965052, 33.4460728 ], [ 131.596507800000012, 33.4459749 ], [ 131.5965238, 33.445917 ], [ 131.5964918, 33.4458102 ], [ 131.5964865, 33.4457212 ], [ 131.5965505, 33.4456611 ], [ 131.5966118, 33.4455632 ], [ 131.5966785, 33.4454742 ] ] ] } },
{ "type": "Feature", "properties": { "natural": "water", "source": null, "water": "reservoir", "landuse": null, "layer": null, "type": null, "area_m2": 4942.9974496763725, "name": "Unnamed", "simple_id": 48 }, "geometry": { "type": "Polygon", "coordinates": [ [ [ 131.563419399999987, 33.4284157 ], [ 131.5635857, 33.4279749 ], [ 131.56364, 33.4278753 ], [ 131.5641898, 33.427993 ], [ 131.5644105, 33.4280927 ], [ 131.5642296, 33.4282134 ], [ 131.5638968, 33.4284066 ], [ 131.5638028, 33.4284278 ], [ 131.5637051, 33.4283855 ], [ 131.563614699999988, 33.4284338 ], [ 131.5635098, 33.428473 ], [ 131.563419399999987, 33.4284157 ] ] ] } }
]
}
